*******************************************************************************
Ephemeris / WWW_USER Mon Mar 24 08:03:50 2025 Pasadena, USA      / Horizons    
*******************************************************************************
Target body name: (2018 US2)                      {source: JPL#14}
Center body name: Earth (399)                     {source: DE441}
Center-site name: Mauna Kea
*******************************************************************************
Start time      : A.D. 2018-Dec-24 03:59:00.0000 UT      
Stop  time      : A.D. 2018-Dec-24 16:43:00.0000 UT      
Step-size       : 1 minutes
*******************************************************************************
Target pole/equ : undefined
Target radii    : undefined                                                    
Center geodetic : 204.5278, 19.8260847, 4.21024   {E-lon(deg),Lat(deg),Alt(km)}
Center cylindric: 204.5278, 6006.35451, 2151.0229 {E-lon(deg),Dxy(km),Dz(km)}
Center pole/equ : ITRF93                          {East-longitude positive}
Center radii    : 6378.137, 6378.137, 6356.752 km {Equator_a, b, pole_c}       
Target primary  : Sun
Vis. interferer : MOON (R_eq= 1737.400) km        {source: DE441}
Rel. light bend : Sun                             {source: DE441}
Rel. lght bnd GM: 1.3271E+11 km^3/s^2                                          
Small-body perts: Yes                             {source: SB441-N16}
Atmos refraction: NO (AIRLESS)
RA format       : HMS
Time format     : CAL 
Calendar mode   : Mixed Julian/Gregorian
RTS-only print  : NO       
EOP file        : eop.250321.p250617                                           
EOP coverage    : DATA-BASED 1962-JAN-20 TO 2025-MAR-21. PREDICTS-> 2025-JUN-16
Units conversion: 1 au= 149597870.700 km, c= 299792.458 km/s, 1 day= 86400.0 s 
Table cut-offs 1: Elevation (-90.0deg=NO ),Airmass (>38.000=NO), Daylight (YES)
Table cut-offs 2: Solar elongation (  0.0,180.0=NO ),Local Hour Angle( 0.0=NO )
Table cut-offs 3: RA/DEC angular rate (     0.0=NO )                           
*******************************************************************************
Initial IAU76/J2000 heliocentric ecliptic osculating elements (au, days, deg.):
  EPOCH=  2458424.5 ! 2018-Nov-02.00 (TDB)         Residual RMS= .2503         
   EC= .6580934192644969   QR= 1.019516546973241   TP= 2458405.4003266119      
   OM= 225.9089147719754   W=  151.3321843630243   IN= 7.044798776353047       
  Equivalent ICRF heliocentric cartesian coordinates (au, au/d):
   X= 8.026033061055595E-01  Y= 6.200562709856074E-01  Z= 2.826199844552283E-01
  VX=-1.102263624249032E-02 VY= 1.780430100977025E-02 VZ= 4.937770740848229E-03
Asteroid physical parameters (km, seconds, rotational period in hours):        
   GM= n.a.                RAD= n.a.               ROTPER= n.a.                
   H= 24.88                G= .150                 B-V= n.a.                   
                           ALBEDO= n.a.            STYP= n.a.                  
*******************************************************************************
 Date__(UT)__HR:MN     R.A._________(ICRF)_________DEC
******************************************************
$$SOE
 2018-Dec-24 12:11  m  05 08 03.713889 +07 20 29.32294
 2018-Dec-24 12:12  m  05 08 03.719468 +07 20 29.49931
 2018-Dec-24 12:13  m  05 08 03.725066 +07 20 29.67566
 2018-Dec-24 12:14  m  05 08 03.730681 +07 20 29.85198
 2018-Dec-24 12:15  m  05 08 03.736314 +07 20 30.02827
 2018-Dec-24 12:16  m  05 08 03.741965 +07 20 30.20453
 2018-Dec-24 12:17  m  05 08 03.747634 +07 20 30.38077
 2018-Dec-24 12:18  m  05 08 03.753321 +07 20 30.55698
 2018-Dec-24 12:19  m  05 08 03.759026 +07 20 30.73317
 2018-Dec-24 12:20  m  05 08 03.764749 +07 20 30.90933
 2018-Dec-24 12:21  m  05 08 03.770490 +07 20 31.08546
 2018-Dec-24 12:22  m  05 08 03.776250 +07 20 31.26157
 2018-Dec-24 12:23  m  05 08 03.782029 +07 20 31.43765
 2018-Dec-24 12:24  m  05 08 03.787825 +07 20 31.61370
 2018-Dec-24 12:25  m  05 08 03.793641 +07 20 31.78974
 2018-Dec-24 12:26  m  05 08 03.799475 +07 20 31.96574
 2018-Dec-24 12:27  m  05 08 03.805328 +07 20 32.14172
 2018-Dec-24 12:28  m  05 08 03.811200 +07 20 32.31768
 2018-Dec-24 12:29  m  05 08 03.817090 +07 20 32.49361
 2018-Dec-24 12:30  m  05 08 03.823000 +07 20 32.66951
 2018-Dec-24 12:31  m  05 08 03.828928 +07 20 32.84539
 2018-Dec-24 12:32  m  05 08 03.834876 +07 20 33.02125
 2018-Dec-24 12:33  m  05 08 03.840842 +07 20 33.19709
 2018-Dec-24 12:34  m  05 08 03.846828 +07 20 33.37289
 2018-Dec-24 12:35  m  05 08 03.852834 +07 20 33.54868
 2018-Dec-24 12:36  m  05 08 03.858859 +07 20 33.72444
 2018-Dec-24 12:37  m  05 08 03.864903 +07 20 33.90018
 2018-Dec-24 12:38  m  05 08 03.870967 +07 20 34.07589
 2018-Dec-24 12:39  m  05 08 03.877050 +07 20 34.25159
 2018-Dec-24 12:40  m  05 08 03.883153 +07 20 34.42726
 2018-Dec-24 12:41  m  05 08 03.889276 +07 20 34.60290
 2018-Dec-24 12:42  m  05 08 03.895418 +07 20 34.77852
 2018-Dec-24 12:43  m  05 08 03.901580 +07 20 34.95412
 2018-Dec-24 12:44  m  05 08 03.907763 +07 20 35.12970
 2018-Dec-24 12:45  m  05 08 03.913965 +07 20 35.30526
 2018-Dec-24 12:46  m  05 08 03.920188 +07 20 35.48079
 2018-Dec-24 12:47  m  05 08 03.926430 +07 20 35.65631
 2018-Dec-24 12:48  m  05 08 03.932693 +07 20 35.83180
 2018-Dec-24 12:49  m  05 08 03.938976 +07 20 36.00726
 2018-Dec-24 12:50  m  05 08 03.945279 +07 20 36.18271
 2018-Dec-24 12:51  m  05 08 03.951603 +07 20 36.35814
 2018-Dec-24 12:52  m  05 08 03.957948 +07 20 36.53354
 2018-Dec-24 12:53  m  05 08 03.964312 +07 20 36.70893
 2018-Dec-24 12:54  m  05 08 03.970698 +07 20 36.88429
 2018-Dec-24 12:55  m  05 08 03.977104 +07 20 37.05963
 2018-Dec-24 12:56  m  05 08 03.983531 +07 20 37.23496
 2018-Dec-24 12:57  m  05 08 03.989978 +07 20 37.41026
 2018-Dec-24 12:58  m  05 08 03.996447 +07 20 37.58554
 2018-Dec-24 12:59  m  05 08 04.002936 +07 20 37.76081
 2018-Dec-24 13:00  m  05 08 04.009446 +07 20 37.93605
 2018-Dec-24 13:01  m  05 08 04.015978 +07 20 38.11127
 2018-Dec-24 13:02  m  05 08 04.022530 +07 20 38.28648
 2018-Dec-24 13:03  m  05 08 04.029104 +07 20 38.46166
 2018-Dec-24 13:04  m  05 08 04.035699 +07 20 38.63683
 2018-Dec-24 13:05  m  05 08 04.042315 +07 20 38.81198
 2018-Dec-24 13:06  m  05 08 04.048952 +07 20 38.98710
 2018-Dec-24 13:07  m  05 08 04.055611 +07 20 39.16221
 2018-Dec-24 13:08  m  05 08 04.062292 +07 20 39.33731
 2018-Dec-24 13:09  m  05 08 04.068993 +07 20 39.51238
 2018-Dec-24 13:10  m  05 08 04.075717 +07 20 39.68744
 2018-Dec-24 13:11  m  05 08 04.082462 +07 20 39.86247
 2018-Dec-24 13:12  m  05 08 04.089229 +07 20 40.03749
 2018-Dec-24 13:13  m  05 08 04.096017 +07 20 40.21250
 2018-Dec-24 13:14  m  05 08 04.102827 +07 20 40.38748
 2018-Dec-24 13:15  m  05 08 04.109659 +07 20 40.56245
 2018-Dec-24 13:16  m  05 08 04.116513 +07 20 40.73741
 2018-Dec-24 13:17  m  05 08 04.123389 +07 20 40.91234
 2018-Dec-24 13:18  m  05 08 04.130287 +07 20 41.08726
 2018-Dec-24 13:19  m  05 08 04.137208 +07 20 41.26216
 2018-Dec-24 13:20  m  05 08 04.144150 +07 20 41.43705
 2018-Dec-24 13:21  m  05 08 04.151114 +07 20 41.61192
 2018-Dec-24 13:22  m  05 08 04.158101 +07 20 41.78678
 2018-Dec-24 13:23  m  05 08 04.165110 +07 20 41.96161
 2018-Dec-24 13:24  m  05 08 04.172141 +07 20 42.13644
 2018-Dec-24 13:25  m  05 08 04.179195 +07 20 42.31125
 2018-Dec-24 13:26  m  05 08 04.186271 +07 20 42.48604
 2018-Dec-24 13:27  m  05 08 04.193369 +07 20 42.66082
 2018-Dec-24 13:28  m  05 08 04.200490 +07 20 42.83558
 2018-Dec-24 13:29  m  05 08 04.207634 +07 20 43.01033
 2018-Dec-24 13:30  m  05 08 04.214800 +07 20 43.18507
 2018-Dec-24 13:31  m  05 08 04.221989 +07 20 43.35979
 2018-Dec-24 13:32  m  05 08 04.229201 +07 20 43.53450
 2018-Dec-24 13:33  m  05 08 04.236436 +07 20 43.70919
 2018-Dec-24 13:34  m  05 08 04.243693 +07 20 43.88387
 2018-Dec-24 13:35  m  05 08 04.250974 +07 20 44.05854
 2018-Dec-24 13:36  m  05 08 04.258277 +07 20 44.23319
 2018-Dec-24 13:37  m  05 08 04.265603 +07 20 44.40783
 2018-Dec-24 13:38  m  05 08 04.272952 +07 20 44.58246
 2018-Dec-24 13:39  m  05 08 04.280324 +07 20 44.75708
 2018-Dec-24 13:40  m  05 08 04.287720 +07 20 44.93168
 2018-Dec-24 13:41  m  05 08 04.295138 +07 20 45.10627
 2018-Dec-24 13:42  m  05 08 04.302580 +07 20 45.28085
 2018-Dec-24 13:43  m  05 08 04.310045 +07 20 45.45542
 2018-Dec-24 13:44  m  05 08 04.317533 +07 20 45.62997
 2018-Dec-24 13:45  m  05 08 04.325045 +07 20 45.80452
 2018-Dec-24 13:46  m  05 08 04.332580 +07 20 45.97905
 2018-Dec-24 13:47  m  05 08 04.340138 +07 20 46.15357
 2018-Dec-24 13:48  m  05 08 04.347720 +07 20 46.32808
 2018-Dec-24 13:49  m  05 08 04.355325 +07 20 46.50258
 2018-Dec-24 13:50  m  05 08 04.362954 +07 20 46.67707
 2018-Dec-24 13:51  m  05 08 04.370607 +07 20 46.85155
 2018-Dec-24 13:52  m  05 08 04.378283 +07 20 47.02602
 2018-Dec-24 13:53  m  05 08 04.385983 +07 20 47.20048
 2018-Dec-24 13:54  m  05 08 04.393706 +07 20 47.37493
 2018-Dec-24 13:55  m  05 08 04.401453 +07 20 47.54937
 2018-Dec-24 13:56  m  05 08 04.409224 +07 20 47.72380
 2018-Dec-24 13:57  m  05 08 04.417019 +07 20 47.89822
 2018-Dec-24 13:58  m  05 08 04.424838 +07 20 48.07263
 2018-Dec-24 13:59  m  05 08 04.432680 +07 20 48.24704
 2018-Dec-24 14:00  m  05 08 04.440546 +07 20 48.42143
 2018-Dec-24 14:01  m  05 08 04.448437 +07 20 48.59582
 2018-Dec-24 14:02  m  05 08 04.456351 +07 20 48.77020
 2018-Dec-24 14:03  m  05 08 04.464290 +07 20 48.94457
 2018-Dec-24 14:04  m  05 08 04.472252 +07 20 49.11893
 2018-Dec-24 14:05  m  05 08 04.480239 +07 20 49.29329
 2018-Dec-24 14:06  m  05 08 04.488249 +07 20 49.46764
 2018-Dec-24 14:07  m  05 08 04.496284 +07 20 49.64198
 2018-Dec-24 14:08  m  05 08 04.504343 +07 20 49.81631
 2018-Dec-24 14:09  m  05 08 04.512426 +07 20 49.99064
 2018-Dec-24 14:10  m  05 08 04.520534 +07 20 50.16496
 2018-Dec-24 14:11  m  05 08 04.528666 +07 20 50.33928
 2018-Dec-24 14:12  m  05 08 04.536822 +07 20 50.51359
 2018-Dec-24 14:13  m  05 08 04.545002 +07 20 50.68789
